ONEWEB-0371             
1 49297U 21090U   24308.88030850  .00000008  00000+0 -12504-4 0  9996
2 49297  87.9176  62.3469 0001646  95.8690 264.2630 13.19722981149881
ONEWEB-0372             
1 49298U 21090V   24308.94017359  .00000165  00000+0  37380-3 0  9994
2 49298  87.9292  31.8661 0001809  99.5180 260.6157 13.20775650151927
ONEWEB-0373             
1 49299U 21090W   24308.73987651  .00000061  00000+0  11864-3 0  9997
2 49299  87.9293  31.9202 0001813 109.9621 250.1708 13.20769560153080
ONEWEB-0374             
1 49300U 21090X   24308.82531797  .00000141  00000+0  34659-3 0  9992
2 49300  87.9028  47.0943 0001742 102.9392 257.1933 13.14503992150002
ONEWEB-0375             
1 49301U 21090Y   24308.72725469  .00000111  00000+0  24233-3 0  9997
2 49301  87.9295  31.8998 0001781 125.1173 235.0128 13.20769473152588
ONEWEB-0376             
1 49302U 21090Z   24308.87871877 -.00001568  00000+0 -39498-2 0  9996
2 49302  87.9168  62.3463 0001914  94.4560 265.6792 13.19732527149872
ONEWEB-0377             
1 49303U 21090AA  24308.71318007  .00000167  00000+0  37853-3 0  9997
2 49303  87.9291  31.8942 0001440 103.0996 257.0298 13.20774909152576
ONEWEB-0378             
1 49304U 21090AB  24308.73527277  .00000155  00000+0  34915-3 0  9994
2 49304  87.9296  31.8949 0001724 106.1539 253.9784 13.20775307151848
